{
"type": "FeatureCollection",
"name": "NODCs_layer",
"crs": { "type": "name", "properties": { "name": "urn:ogc:def:crs:EPSG::3857" } },
"features": [
{ "type": "Feature", "properties": { "Latitude": "-34.65162", "Longitude": "-58.37125", "Country": "Argentina", "Organisation name": "Servicio de Hidrografía Naval", "Website": "https://www.hidro.gov.ar/ " }, "geometry": { "type": "Point", "coordinates": [ -58.37125, -34.65162 ] } },
{ "type": "Feature", "properties": { "Latitude": "-42.88614", "Longitude": "147.33579", "Country": "Australia", "Organisation name": "Australian Ocean Data Network", "Website": "https://portal.aodn.org.au/ " }, "geometry": { "type": "Point", "coordinates": [ 147.33579, -42.88614 ] } },
{ "type": "Feature", "properties": { "Latitude": "51.23265", "Longitude": "2.93977", "Country": "Belgium", "Organisation name": "Vlaams Instituut voor de Zee", "Website": "https://vliz.be/en " }, "geometry": { "type": "Point", "coordinates": [ 2.93977, 51.23265 ] } },
{ "type": "Feature", "properties": { "Latitude": "50.83665", "Longitude": "4.37663", "Country": "Belgium", "Organisation name": "Royal Belgian Institute of Natural Sciences", "Website": " Operational Directorate Natural Environment" }, "geometry": { "type": "Point", "coordinates": [ 4.37663, 50.83665 ] } },
{ "type": "Feature", "properties": { "Latitude": "6.36904", "Longitude": "2.43953", "Country": "Benin", "Organisation name": "Centre de Recherches Halieutiques et Océanologiques du Bénin", "Website": "http://nodc.ioc-africa.org/benin/ " }, "geometry": { "type": "Point", "coordinates": [ 2.43953, 6.36904 ] } },
{ "type": "Feature", "properties": { "Latitude": "-22.8836", "Longitude": "-43.12935", "Country": "Brazil", "Organisation name": "Brazilian Navy Hydrographic Center", "Website": " Directorate of Hydrography and Navigation" }, "geometry": { "type": "Point", "coordinates": [ -43.12935, -22.8836 ] } },
{ "type": "Feature", "properties": { "Latitude": "43.17572", "Longitude": "27.90906", "Country": "Bulgaria", "Organisation name": "Bulgarian Academy of Sciences", "Website": " Institute of Oceanology" }, "geometry": { "type": "Point", "coordinates": [ 27.90906, 43.17572 ] } },
{ "type": "Feature", "properties": { "Latitude": "3.86092", "Longitude": "11.50685", "Country": "Cameroon", "Organisation name": "Ministère des Sciences et Innovation", "Website": " Institut de Recherche Agricole pour le Développement. Centre de Recherche pour Ecosystèmes Marin (CERECOMA)." }, "geometry": { "type": "Point", "coordinates": [ 11.50685, 3.86092 ] } },
{ "type": "Feature", "properties": { "Latitude": "45.41709", "Longitude": "-75.70137", "Country": "Canada", "Organisation name": "Marine Environmental Data Section (MEDS)", "Website": " Oceans Science Branch (DFO - OSB)" }, "geometry": { "type": "Point", "coordinates": [ -75.70137, 45.41709 ] } },
{ "type": "Feature", "properties": { "Latitude": "-33.02772", "Longitude": "-71.63518", "Country": "Chile", "Organisation name": "Chilean Navy Hydrographic and Oceanographic Service", "Website": "http://www.shoa.cl/" }, "geometry": { "type": "Point", "coordinates": [ -71.63518, -33.02772 ] } },
{ "type": "Feature", "properties": { "Latitude": "39.12299", "Longitude": "117.22352", "Country": "China", "Organisation name": "National Marine Data and Information Service", "Website": "https://www.nmdis.org.cn/ " }, "geometry": { "type": "Point", "coordinates": [ 117.22352, 39.12299 ] } },
{ "type": "Feature", "properties": { "Latitude": "4.64366", "Longitude": "-74.09468", "Country": "Colombia", "Organisation name": "Dirección General Marítima Colombia", "Website": "https://www.dimar.mil.co/ " }, "geometry": { "type": "Point", "coordinates": [ -74.09468, 4.64366 ] } },
{ "type": "Feature", "properties": { "Latitude": "43.50819", "Longitude": "16.38869", "Country": "Croatia", "Organisation name": "Institute of Oceanography and Fisheries Croatia", "Website": "https://galijula.izor.hr/ " }, "geometry": { "type": "Point", "coordinates": [ 16.38869, 43.50819 ] } },
{ "type": "Feature", "properties": { "Latitude": "35.14383", "Longitude": "33.40649", "Country": "Cyprus", "Organisation name": "Cyprus Marine and Maritime Institute", "Website": "https://oceanography.ucy.ac.cy/ " }, "geometry": { "type": "Point", "coordinates": [ 33.40649, 35.14383 ] } },
{ "type": "Feature", "properties": { "Latitude": "5.28549", "Longitude": "-4.00445", "Country": "Côte d'Ivoire", "Organisation name": "Centre de Recherches Océanologiques", "Website": "https://cro.edu.ci/ " }, "geometry": { "type": "Point", "coordinates": [ -4.00445, 5.28549 ] } },
{ "type": "Feature", "properties": { "Latitude": "-4.35102", "Longitude": "15.33638", "Country": "Democratic Republic of the Congo", "Organisation name": "Centre de Controle et Surveillance de la Pollution Marine", "Website": null }, "geometry": { "type": "Point", "coordinates": [ 15.33638, -4.35102 ] } },
{ "type": "Feature", "properties": { "Latitude": "-2.27161", "Longitude": "-79.904", "Country": "Ecuador", "Organisation name": "Instituto Oceanográfico y Antártico de la Armada del Ecuador", "Website": "https://www.inocar.mil.ec/web/" }, "geometry": { "type": "Point", "coordinates": [ -79.904, -2.27161 ] } },
{ "type": "Feature", "properties": { "Latitude": "31.21284", "Longitude": "29.8851", "Country": "Egypt", "Organisation name": "National Institute of Oceanography and Fisheries", "Website": " Alexandria" }, "geometry": { "type": "Point", "coordinates": [ 29.8851, 31.21284 ] } },
{ "type": "Feature", "properties": { "Latitude": "48.35916", "Longitude": "-4.55879", "Country": "France", "Organisation name": "Institut Français de Recherche pour l'Exploitation de la Mer", "Website": " Ifremer" }, "geometry": { "type": "Point", "coordinates": [ -4.55879, 48.35916 ] } },
{ "type": "Feature", "properties": { "Latitude": "53.54695", "Longitude": "9.96779", "Country": "Germany", "Organisation name": "Bundesamt fuer Seeschifffahrt und Hydrographie (Federal Maritime and Hydrographic Agency)", "Website": "https://www.bsh.de/EN/Home/home_node.html " }, "geometry": { "type": "Point", "coordinates": [ 9.96779, 53.54695 ] } },
{ "type": "Feature", "properties": { "Latitude": "5.55087", "Longitude": "-0.19723", "Country": "Ghana", "Organisation name": "Ministry of Fisheries and Aquaculture Development", "Website": " Fisheries Commission" }, "geometry": { "type": "Point", "coordinates": [ -0.19723, 5.55087 ] } },
{ "type": "Feature", "properties": { "Latitude": "37.73343", "Longitude": "23.90422", "Country": "Greece", "Organisation name": "Hellenic Centre for Marine Research (HCMR)", "Website": " Hellenic National Oceanographic Data Centre (HNODC)" }, "geometry": { "type": "Point", "coordinates": [ 23.90422, 37.73343 ] } },
{ "type": "Feature", "properties": { "Latitude": "9.58471", "Longitude": "-13.66346", "Country": "Guinea", "Organisation name": "Centre de Recherche Scientifique de Conakry Rogbanè", "Website": null }, "geometry": { "type": "Point", "coordinates": [ -13.66346, 9.58471 ] } },
{ "type": "Feature", "properties": { "Latitude": "17.52816", "Longitude": "78.40013", "Country": "India", "Organisation name": "Indian National Centre for Ocean Information Services", "Website": "http://www.incois.gov.in/ " }, "geometry": { "type": "Point", "coordinates": [ 78.40013, 17.52816 ] } },
{ "type": "Feature", "properties": { "Latitude": "-6.1848", "Longitude": "106.82227", "Country": "Indonesia", "Organisation name": "Badan Pengkajian dan Penerapan Teknologi", "Website": " Agency for the Assessment & Application of Technology" }, "geometry": { "type": "Point", "coordinates": [ 106.82227, -6.1848 ] } },
{ "type": "Feature", "properties": { "Latitude": "35.71377", "Longitude": "51.38477", "Country": "Iran (Islamic Republic of)", "Organisation name": "Iranian National Institute for Oceanography and Atmospheric Science", "Website": "https://incodapi.inio.ac.ir/" }, "geometry": { "type": "Point", "coordinates": [ 51.38477, 35.71377 ] } },
{ "type": "Feature", "properties": { "Latitude": "53.24739", "Longitude": "-8.9779", "Country": "Ireland", "Organisation name": "Marine Institute Headquarters", "Website": " Galway" }, "geometry": { "type": "Point", "coordinates": [ -8.9779, 53.24739 ] } },
{ "type": "Feature", "properties": { "Latitude": "32.82605", "Longitude": "34.95669", "Country": "Israel", "Organisation name": "Israel Oceanographic & Limnological Research", "Website": "https://www.ocean.org.il/en/ " }, "geometry": { "type": "Point", "coordinates": [ 34.95669, 32.82605 ] } },
{ "type": "Feature", "properties": { "Latitude": "45.70986", "Longitude": "13.76351", "Country": "Italy", "Organisation name": "Istituto Nazionale di Oceanografia e di Geofisica Sperimentale", "Website": " Trieste" }, "geometry": { "type": "Point", "coordinates": [ 13.76351, 45.70986 ] } },
{ "type": "Feature", "properties": { "Latitude": "35.67281", "Longitude": "139.74779", "Country": "Japan", "Organisation name": "Japan Oceanographic Data Center", "Website": "https://www.jodc.go.jp/" }, "geometry": { "type": "Point", "coordinates": [ 139.74779, 35.67281 ] } },
{ "type": "Feature", "properties": { "Latitude": "51.1239", "Longitude": "71.4344", "Country": "Kazakhstan", "Organisation name": "РГП Казгидромет\"", "Website": "https://www.kazhydromet.kz/" }, "geometry": { "type": "Point", "coordinates": [ 71.4344, 51.1239 ] } },
{ "type": "Feature", "properties": { "Latitude": "-4.05527", "Longitude": "39.68254", "Country": "Kenya", "Organisation name": "Kenya Marine and Fisheries Research Institute", "Website": " Headquarter & Mombasa Station" }, "geometry": { "type": "Point", "coordinates": [ 39.68254, -4.05527 ] } },
{ "type": "Feature", "properties": { "Latitude": "-23.36815", "Longitude": "43.67335", "Country": "Madagascar", "Organisation name": "Institut Halieutique et de Sciences Marines", "Website": "https://ihsm.mg/ " }, "geometry": { "type": "Point", "coordinates": [ 43.67335, -23.36815 ] } },
{ "type": "Feature", "properties": { "Latitude": "2.93546", "Longitude": "101.6989", "Country": "Malaysia", "Organisation name": "Institute of Oceanography and Environment", "Website": "https://www.mosti.gov.my/" }, "geometry": { "type": "Point", "coordinates": [ 101.6989, 2.93546 ] } },
{ "type": "Feature", "properties": { "Latitude": "20.85946", "Longitude": "-17.03729", "Country": "Mauritania", "Organisation name": "Institut Mauritanien de Recherche Océanographique et des Pêches", "Website": "https://www.imrop.mr/ " }, "geometry": { "type": "Point", "coordinates": [ -17.03729, 20.85946 ] } },
{ "type": "Feature", "properties": { "Latitude": "-20.16317", "Longitude": "57.50315", "Country": "Mauritius", "Organisation name": "Department for Continental Shelf", "Website": " Maritime Zones Administration and Exploration" }, "geometry": { "type": "Point", "coordinates": [ 57.50315, -20.16317 ] } },
{ "type": "Feature", "properties": { "Latitude": "31.86282", "Longitude": "-116.66629", "Country": "Mexico", "Organisation name": "Universidad Autonoma de Baja California", "Website": " Instituto de Investigaciones Oceanologicas (UABC)" }, "geometry": { "type": "Point", "coordinates": [ -116.66629, 31.86282 ] } },
{ "type": "Feature", "properties": { "Latitude": "-25.97247", "Longitude": "32.56904", "Country": "Mozambique", "Organisation name": "Insituto Nacional de Hidrografia e Navegaco", "Website": null }, "geometry": { "type": "Point", "coordinates": [ 32.56904, -25.97247 ] } },
{ "type": "Feature", "properties": { "Latitude": "51.48872", "Longitude": "4.05681", "Country": "Netherlands (Kingdom of the)", "Organisation name": "Koninklijk Nederlands Instituut voor Onderzoek der Zee", "Website": "http://www.nioz.nl/" }, "geometry": { "type": "Point", "coordinates": [ 4.05681, 51.48872 ] } },
{ "type": "Feature", "properties": { "Latitude": "6.42208", "Longitude": "3.41082", "Country": "Nigeria", "Organisation name": "Nigerian Institute for Oceanography and Marine Research", "Website": "http://www.niomr.gov.ng/" }, "geometry": { "type": "Point", "coordinates": [ 3.41082, 6.42208 ] } },
{ "type": "Feature", "properties": { "Latitude": "60.39997", "Longitude": "5.30395", "Country": "Norway", "Organisation name": "Institute of Marine Research (IMR)", "Website": " Bergen" }, "geometry": { "type": "Point", "coordinates": [ 5.30395, 60.39997 ] } },
{ "type": "Feature", "properties": { "Latitude": "24.81409", "Longitude": "66.99476", "Country": "Pakistan", "Organisation name": "National Institute of Oceanography", "Website": " Karachi" }, "geometry": { "type": "Point", "coordinates": [ 66.99476, 24.81409 ] } },
{ "type": "Feature", "properties": { "Latitude": "8.95946", "Longitude": "-79.55505", "Country": "Panama", "Organisation name": "Autoridad del Canal de Panamá", "Website": " Canal de Panama" }, "geometry": { "type": "Point", "coordinates": [ -79.55505, 8.95946 ] } },
{ "type": "Feature", "properties": { "Latitude": "-12.06523", "Longitude": "-77.15566", "Country": "Peru", "Organisation name": "Marina de Guerra del Perú", "Website": " Dirección de Hidrografía y Navegación" }, "geometry": { "type": "Point", "coordinates": [ -77.15566, -12.06523 ] } },
{ "type": "Feature", "properties": { "Latitude": "54.45075", "Longitude": "18.56389", "Country": "Poland", "Organisation name": "Polish Academy of Sciences – Institute of Oceanology", "Website": "https://www.iopan.pl/ " }, "geometry": { "type": "Point", "coordinates": [ 18.56389, 54.45075 ] } },
{ "type": "Feature", "properties": { "Latitude": "38.7085", "Longitude": "-9.15717", "Country": "Portugal", "Organisation name": "Instituto Hidrográfico Marinha", "Website": "http://www.hidrografico.pt/ " }, "geometry": { "type": "Point", "coordinates": [ -9.15717, 38.7085 ] } },
{ "type": "Feature", "properties": { "Latitude": "38.77598", "Longitude": "-9.12577", "Country": "Portugal", "Organisation name": "Instituto Português do Mar e da Atmosfera", "Website": " I. P." }, "geometry": { "type": "Point", "coordinates": [ -9.12577, 38.77598 ] } },
{ "type": "Feature", "properties": { "Latitude": "35.19003", "Longitude": "129.22144", "Country": "Republic of Korea", "Organisation name": "Ministry of Oceans and Fisheries (MOF)", "Website": " National Institute of Fisheries Science (NIFS)" }, "geometry": { "type": "Point", "coordinates": [ 129.22144, 35.19003 ] } },
{ "type": "Feature", "properties": { "Latitude": "44.2136", "Longitude": "28.64351", "Country": "Romania", "Organisation name": "National Institute for Marine Research and Development “Grigore Antipa”", "Website": "https://www.rmri.ro/Home/Home.html" }, "geometry": { "type": "Point", "coordinates": [ 28.64351, 44.2136 ] } },
{ "type": "Feature", "properties": { "Latitude": "55.11125", "Longitude": "36.60933", "Country": "Russian Federation", "Organisation name": "Научно-производственное объединение «Тайфун»", "Website": "http://meteo.ru/" }, "geometry": { "type": "Point", "coordinates": [ 36.60933, 55.11125 ] } },
{ "type": "Feature", "properties": { "Latitude": "14.72205", "Longitude": "-17.4336", "Country": "Senegal", "Organisation name": "Centre de Recherche Océanographique de Dakar Thiaroye (CRODT-ISRA)/ LPAOSF-ESP-UCAD", "Website": "https://isra.sn/" }, "geometry": { "type": "Point", "coordinates": [ -17.4336, 14.72205 ] } },
{ "type": "Feature", "properties": { "Latitude": "-4.62299", "Longitude": "55.459", "Country": "Seychelles", "Organisation name": "Seychelles Fisheries Authority", "Website": "https://www.sfa.sc/" }, "geometry": { "type": "Point", "coordinates": [ 55.459, -4.62299 ] } },
{ "type": "Feature", "properties": { "Latitude": "45.51798", "Longitude": "13.56887", "Country": "Slovenia", "Organisation name": "National Institute of Biology", "Website": " Marine Biology Station" }, "geometry": { "type": "Point", "coordinates": [ 13.56887, 45.51798 ] } },
{ "type": "Feature", "properties": { "Latitude": "40.44053", "Longitude": "-3.67103", "Country": "Spain", "Organisation name": "Instituto Español de Oceanografía", "Website": "http://www.ieo.es/ " }, "geometry": { "type": "Point", "coordinates": [ -3.67103, 40.44053 ] } },
{ "type": "Feature", "properties": { "Latitude": "58.58112", "Longitude": "16.14786", "Country": "Sweden", "Organisation name": "Sveriges meteorologiska och hydrologiska institut", "Website": "http://www.smhi.se/ " }, "geometry": { "type": "Point", "coordinates": [ 16.14786, 58.58112 ] } },
{ "type": "Feature", "properties": { "Latitude": "36.84324", "Longitude": "10.32584", "Country": "Tunisia", "Organisation name": "Institut National des Sciences et Technologies de la Mer", "Website": " Salambo" }, "geometry": { "type": "Point", "coordinates": [ 10.32584, 36.84324 ] } },
{ "type": "Feature", "properties": { "Latitude": "41.10681", "Longitude": "29.07659", "Country": "Türkiye", "Organisation name": "Turkish Naval Forces", "Website": " Office of Navigation" }, "geometry": { "type": "Point", "coordinates": [ 29.07659, 41.10681 ] } },
{ "type": "Feature", "properties": { "Latitude": "46.43965", "Longitude": "30.76917", "Country": "Ukraine", "Organisation name": "Ukrainian Scientific Centre of Ecology of the Sea", "Website": "http://www.sea.gov.ua/" }, "geometry": { "type": "Point", "coordinates": [ 30.76917, 46.43965 ] } },
{ "type": "Feature", "properties": { "Latitude": "53.40744", "Longitude": "-2.96908", "Country": "United Kingdom of Great Britain and Northern Ireland", "Organisation name": "British Oceanographic Data Centre", "Website": "https://www.noc.ac.uk/ " }, "geometry": { "type": "Point", "coordinates": [ -2.96908, 53.40744 ] } },
{ "type": "Feature", "properties": { "Latitude": "-6.821", "Longitude": "39.28735", "Country": "United Republic of Tanzania", "Organisation name": "University of Dar es Salaam", "Website": " Institute of Marine Sciences" }, "geometry": { "type": "Point", "coordinates": [ 39.28735, -6.821 ] } },
{ "type": "Feature", "properties": { "Latitude": "35.59404", "Longitude": "-82.55795", "Country": "United States of America", "Organisation name": "NOAA NESDIS National Centers for Environmental Information (NCEI)", "Website": "https://www.ncei.noaa.gov/ " }, "geometry": { "type": "Point", "coordinates": [ -82.55795, 35.59404 ] } },
{ "type": "Feature", "properties": { "Latitude": "10.50343", "Longitude": "-66.92922", "Country": "Venezuela (Bolivarian Republic of)", "Organisation name": "Instituto Venezolano de Investigaciones Científicas. Centro de Oceanología y Estudios Antárticos", "Website": null }, "geometry": { "type": "Point", "coordinates": [ -66.92922, 10.50343 ] } }
]
}
